SKYNET 5B               
1 32294U 07056B   26117.10947521  .00000133  00000+0  00000+0 0  9999
2 32294   5.1238  74.0952 0003952 314.3726 251.1423  1.00269354 67688
ASTRA 4A                
1 32299U 07057A   26117.22267125  .00000022  00000+0  00000+0 0  9990
2 32299   0.0231 356.6387 0002451  33.7228 269.8153  1.00271781 51139
HORIZONS-2              
1 32388U 07063B   26117.12961398 -.00000262  00000+0  00000+0 0  9995
2 32388   2.4725  81.2253 0003460 322.6535 144.1123  1.00272444 67302
THURAYA-3               
1 32404U 08001A   26117.20233530 -.00000310  00000+0  00000+0 0  9990
2 32404   5.9064  35.7241 0002285 355.6365 355.1618  1.00271551 66970
EXPRESS-AM33            
1 32478U 08003A   26117.06947483  .00000128  00000+0  00000+0 0  9992
2 32478   4.6729  75.9312 0013051 178.9571  10.5814  1.00197603 53227
THOR 5                  
1 32487U 08006A   26117.12058762 -.00000019  00000+0  00000+0 0  9995
2 32487   0.0216 248.4135 0002594 154.6285 214.7390  1.00273406 66802
KIZUNA (WINDS)          
1 32500U 08007A   26117.12058762 -.00000017  00000+0  00000+0 0  9990
2 32500   8.4096  62.7315 0000360  72.6627 122.3226  1.00292227 66388
DIRECTV 11              
1 32729U 08013A   26117.00600436 -.00000136  00000+0  00000+0 0  9990
2 32729   0.0159 106.6815 0000308 257.4246 113.8610  1.00271519 45081
ICO G1                  
1 32763U 08016A   26117.20253022 -.00000180  00000+0  00000+0 0  9997
2 32763   5.5204  36.2434 0002417 347.4814 171.5366  1.00272533 66033
VINASAT-1               
1 32767U 08018A   26116.94796766 -.00000339  00000+0  00000+0 0  9996
2 32767   0.0056 295.4294 0002167 128.1320 264.5993  1.00271649 66073
STAR ONE C2             
1 32768U 08018B   26117.19114044 -.00000286  00000+0  00000+0 0  9999
2 32768   1.1126  82.8506 0002804 314.6238 181.5280  1.00272990 66141
AMOS-3                  
1 32794U 08022A   26117.22267125  .00000044  00000+0  00000+0 0  9997
2 32794   0.3252  86.6765 0000166 104.0383 108.2525  1.00453707 81828
GALAXY 18 (G-18)        
1 32951U 08024A   26117.20011894  .00000015  00000+0  00000+0 0  9990
2 32951   0.0157 261.1214 0003253 142.3823 120.7265  1.00271994 45340
ZHONGXING-9             
1 33051U 08028A   26117.19191774 -.00000259  00000+0  00000+0 0  9991
2 33051   0.6398  85.8762 0006364 282.5657   8.2175  1.00272642 65525
SKYNET 5C               
1 33055U 08030A   26117.08100193 -.00000147  00000+0  00000+0 0  9997
2 33055   3.6604  77.6244 0003785 319.9819 188.8387  1.00271627 65448
TURKSAT 3A              
1 33056U 08030B   26117.20044858  .00000136  00000+0  00000+0 0  9994
2 33056   0.0754  78.6520 0005089 319.0772 291.6177  1.00274703 51849
COSMOS 2440             
1 33108U 08033A   26116.93413719 -.00000156  00000+0  00000+0 0  9993
2 33108  10.4861  41.5177 0003935 221.1167   8.7854  1.00272156 65278
