[{"OBJECT_NAME":"SKYNET 5B","OBJECT_ID":"2007-056B","EPOCH":"2026-04-27T02:37:38.658144","MEAN_MOTION":1.00269354,"ECCENTRICITY":0.0003952,"INCLINATION":5.1238,"RA_OF_ASC_NODE":74.0952,"ARG_OF_PERICENTER":314.3726,"MEAN_ANOMALY":251.1423,"EPHEMERIS_TYPE":0,"CLASSIFICATION_TYPE":"U","NORAD_CAT_ID":32294,"ELEMENT_SET_NO":999,"REV_AT_EPOCH":6768,"BSTAR":0,"MEAN_MOTION_DOT":1.33e-6,"MEAN_MOTION_DDOT":0},{"OBJECT_NAME":"ASTRA 4A","OBJECT_ID":"2007-057A","EPOCH":"2026-04-27T05:20:38.796000","MEAN_MOTION":1.00271781,"ECCENTRICITY":0.0002451,"INCLINATION":0.0231,"RA_OF_ASC_NODE":356.6387,"ARG_OF_PERICENTER":33.7228,"MEAN_ANOMALY":269.8153,"EPHEMERIS_TYPE":0,"CLASSIFICATION_TYPE":"U","NORAD_CAT_ID":32299,"ELEMENT_SET_NO":999,"REV_AT_EPOCH":5113,"BSTAR":0,"MEAN_MOTION_DOT":2.2e-7,"MEAN_MOTION_DDOT":0},{"OBJECT_NAME":"HORIZONS-2","OBJECT_ID":"2007-063B","EPOCH":"2026-04-27T03:06:38.647872","MEAN_MOTION":1.00272444,"ECCENTRICITY":0.000346,"INCLINATION":2.4725,"RA_OF_ASC_NODE":81.2253,"ARG_OF_PERICENTER":322.6535,"MEAN_ANOMALY":144.1123,"EPHEMERIS_TYPE":0,"CLASSIFICATION_TYPE":"U","NORAD_CAT_ID":32388,"ELEMENT_SET_NO":999,"REV_AT_EPOCH":6730,"BSTAR":0,"MEAN_MOTION_DOT":-2.62e-6,"MEAN_MOTION_DDOT":0},{"OBJECT_NAME":"THURAYA-3","OBJECT_ID":"2008-001A","EPOCH":"2026-04-27T04:51:21.769920","MEAN_MOTION":1.00271551,"ECCENTRICITY":0.0002285,"INCLINATION":5.9064,"RA_OF_ASC_NODE":35.7241,"ARG_OF_PERICENTER":355.6365,"MEAN_ANOMALY":355.1618,"EPHEMERIS_TYPE":0,"CLASSIFICATION_TYPE":"U","NORAD_CAT_ID":32404,"ELEMENT_SET_NO":999,"REV_AT_EPOCH":6697,"BSTAR":0,"MEAN_MOTION_DOT":-3.1e-6,"MEAN_MOTION_DDOT":0},{"OBJECT_NAME":"EXPRESS-AM33","OBJECT_ID":"2008-003A","EPOCH":"2026-04-27T01:40:02.625312","MEAN_MOTION":1.00197603,"ECCENTRICITY":0.0013051,"INCLINATION":4.6729,"RA_OF_ASC_NODE":75.9312,"ARG_OF_PERICENTER":178.9571,"MEAN_ANOMALY":10.5814,"EPHEMERIS_TYPE":0,"CLASSIFICATION_TYPE":"U","NORAD_CAT_ID":32478,"ELEMENT_SET_NO":999,"REV_AT_EPOCH":5322,"BSTAR":0,"MEAN_MOTION_DOT":1.28e-6,"MEAN_MOTION_DDOT":0},{"OBJECT_NAME":"THOR 5","OBJECT_ID":"2008-006A","EPOCH":"2026-04-27T02:53:38.770368","MEAN_MOTION":1.00273406,"ECCENTRICITY":0.0002594,"INCLINATION":0.0216,"RA_OF_ASC_NODE":248.4135,"ARG_OF_PERICENTER":154.6285,"MEAN_ANOMALY":214.739,"EPHEMERIS_TYPE":0,"CLASSIFICATION_TYPE":"U","NORAD_CAT_ID":32487,"ELEMENT_SET_NO":999,"REV_AT_EPOCH":6680,"BSTAR":0,"MEAN_MOTION_DOT":-1.9e-7,"MEAN_MOTION_DDOT":0},{"OBJECT_NAME":"KIZUNA (WINDS)","OBJECT_ID":"2008-007A","EPOCH":"2026-04-27T02:53:38.770368","MEAN_MOTION":1.00292227,"ECCENTRICITY":3.6e-5,"INCLINATION":8.4096,"RA_OF_ASC_NODE":62.7315,"ARG_OF_PERICENTER":72.6627,"MEAN_ANOMALY":122.3226,"EPHEMERIS_TYPE":0,"CLASSIFICATION_TYPE":"U","NORAD_CAT_ID":32500,"ELEMENT_SET_NO":999,"REV_AT_EPOCH":6638,"BSTAR":0,"MEAN_MOTION_DOT":-1.7e-7,"MEAN_MOTION_DDOT":0},{"OBJECT_NAME":"DIRECTV 11","OBJECT_ID":"2008-013A","EPOCH":"2026-04-27T00:08:38.776704","MEAN_MOTION":1.00271519,"ECCENTRICITY":3.08e-5,"INCLINATION":0.0159,"RA_OF_ASC_NODE":106.6815,"ARG_OF_PERICENTER":257.4246,"MEAN_ANOMALY":113.861,"EPHEMERIS_TYPE":0,"CLASSIFICATION_TYPE":"U","NORAD_CAT_ID":32729,"ELEMENT_SET_NO":999,"REV_AT_EPOCH":4508,"BSTAR":0,"MEAN_MOTION_DOT":-1.36e-6,"MEAN_MOTION_DDOT":0},{"OBJECT_NAME":"ICO G1","OBJECT_ID":"2008-016A","EPOCH":"2026-04-27T04:51:38.611008","MEAN_MOTION":1.00272533,"ECCENTRICITY":0.0002417,"INCLINATION":5.5204,"RA_OF_ASC_NODE":36.2434,"ARG_OF_PERICENTER":347.4814,"MEAN_ANOMALY":171.5366,"EPHEMERIS_TYPE":0,"CLASSIFICATION_TYPE":"U","NORAD_CAT_ID":32763,"ELEMENT_SET_NO":999,"REV_AT_EPOCH":6603,"BSTAR":0,"MEAN_MOTION_DOT":-1.8e-6,"MEAN_MOTION_DDOT":0},{"OBJECT_NAME":"VINASAT-1","OBJECT_ID":"2008-018A","EPOCH":"2026-04-26T22:45:04.405824","MEAN_MOTION":1.00271649,"ECCENTRICITY":0.0002167,"INCLINATION":0.0056,"RA_OF_ASC_NODE":295.4294,"ARG_OF_PERICENTER":128.132,"MEAN_ANOMALY":264.5993,"EPHEMERIS_TYPE":0,"CLASSIFICATION_TYPE":"U","NORAD_CAT_ID":32767,"ELEMENT_SET_NO":999,"REV_AT_EPOCH":6607,"BSTAR":0,"MEAN_MOTION_DOT":-3.39e-6,"MEAN_MOTION_DDOT":0},{"OBJECT_NAME":"STAR ONE C2","OBJECT_ID":"2008-018B","EPOCH":"2026-04-27T04:35:14.534016","MEAN_MOTION":1.0027299,"ECCENTRICITY":0.0002804,"INCLINATION":1.1126,"RA_OF_ASC_NODE":82.8506,"ARG_OF_PERICENTER":314.6238,"MEAN_ANOMALY":181.528,"EPHEMERIS_TYPE":0,"CLASSIFICATION_TYPE":"U","NORAD_CAT_ID":32768,"ELEMENT_SET_NO":999,"REV_AT_EPOCH":6614,"BSTAR":0,"MEAN_MOTION_DOT":-2.86e-6,"MEAN_MOTION_DDOT":0},{"OBJECT_NAME":"AMOS-3","OBJECT_ID":"2008-022A","EPOCH":"2026-04-27T05:20:38.796000","MEAN_MOTION":1.00453707,"ECCENTRICITY":1.66e-5,"INCLINATION":0.3252,"RA_OF_ASC_NODE":86.6765,"ARG_OF_PERICENTER":104.0383,"MEAN_ANOMALY":108.2525,"EPHEMERIS_TYPE":0,"CLASSIFICATION_TYPE":"U","NORAD_CAT_ID":32794,"ELEMENT_SET_NO":999,"REV_AT_EPOCH":8182,"BSTAR":0,"MEAN_MOTION_DOT":4.4e-7,"MEAN_MOTION_DDOT":0},{"OBJECT_NAME":"GALAXY 18 (G-18)","OBJECT_ID":"2008-024A","EPOCH":"2026-04-27T04:48:10.276416","MEAN_MOTION":1.00271994,"ECCENTRICITY":0.0003253,"INCLINATION":0.0157,"RA_OF_ASC_NODE":261.1214,"ARG_OF_PERICENTER":142.3823,"MEAN_ANOMALY":120.7265,"EPHEMERIS_TYPE":0,"CLASSIFICATION_TYPE":"U","NORAD_CAT_ID":32951,"ELEMENT_SET_NO":999,"REV_AT_EPOCH":4534,"BSTAR":0,"MEAN_MOTION_DOT":1.5e-7,"MEAN_MOTION_DDOT":0},{"OBJECT_NAME":"ZHONGXING-9","OBJECT_ID":"2008-028A","EPOCH":"2026-04-27T04:36:21.692736","MEAN_MOTION":1.00272642,"ECCENTRICITY":0.0006364,"INCLINATION":0.6398,"RA_OF_ASC_NODE":85.8762,"ARG_OF_PERICENTER":282.5657,"MEAN_ANOMALY":8.2175,"EPHEMERIS_TYPE":0,"CLASSIFICATION_TYPE":"U","NORAD_CAT_ID":33051,"ELEMENT_SET_NO":999,"REV_AT_EPOCH":6552,"BSTAR":0,"MEAN_MOTION_DOT":-2.59e-6,"MEAN_MOTION_DDOT":0},{"OBJECT_NAME":"SKYNET 5C","OBJECT_ID":"2008-030A","EPOCH":"2026-04-27T01:56:38.566752","MEAN_MOTION":1.00271627,"ECCENTRICITY":0.0003785,"INCLINATION":3.6604,"RA_OF_ASC_NODE":77.6244,"ARG_OF_PERICENTER":319.9819,"MEAN_ANOMALY":188.8387,"EPHEMERIS_TYPE":0,"CLASSIFICATION_TYPE":"U","NORAD_CAT_ID":33055,"ELEMENT_SET_NO":999,"REV_AT_EPOCH":6544,"BSTAR":0,"MEAN_MOTION_DOT":-1.47e-6,"MEAN_MOTION_DDOT":0},{"OBJECT_NAME":"TURKSAT 3A","OBJECT_ID":"2008-030B","EPOCH":"2026-04-27T04:48:38.757312","MEAN_MOTION":1.00274703,"ECCENTRICITY":0.0005089,"INCLINATION":0.0754,"RA_OF_ASC_NODE":78.652,"ARG_OF_PERICENTER":319.0772,"MEAN_ANOMALY":291.6177,"EPHEMERIS_TYPE":0,"CLASSIFICATION_TYPE":"U","NORAD_CAT_ID":33056,"ELEMENT_SET_NO":999,"REV_AT_EPOCH":5184,"BSTAR":0,"MEAN_MOTION_DOT":1.36e-6,"MEAN_MOTION_DDOT":0},{"OBJECT_NAME":"COSMOS 2440","OBJECT_ID":"2008-033A","EPOCH":"2026-04-26T22:25:09.453216","MEAN_MOTION":1.00272156,"ECCENTRICITY":0.0003935,"INCLINATION":10.4861,"RA_OF_ASC_NODE":41.5177,"ARG_OF_PERICENTER":221.1167,"MEAN_ANOMALY":8.7854,"EPHEMERIS_TYPE":0,"CLASSIFICATION_TYPE":"U","NORAD_CAT_ID":33108,"ELEMENT_SET_NO":999,"REV_AT_EPOCH":6527,"BSTAR":0,"MEAN_MOTION_DOT":-1.56e-6,"MEAN_MOTION_DDOT":0}]
